SEMAPHORE_L_00003001-61
1 64060U 23964EH  26070.40781250  .00000000  00000+0  00000-0 0  9991
2 64060   0.0000   0.0000 0000000   0.0000  90.0000 14.89338871    10
SEMAPHORE_L_00003001-62
1 64061U 22113WT  26070.40781250  .00000000  00000+0  00000-0 0  9997
2 64061   0.0000   0.0000 0000000   0.0000  91.5000 14.89338871    17
SEMAPHORE_L_00003001-63
1 64062U 22370ST  26070.40781250  .00000000  00000+0  00000-0 0  9993
2 64062   0.0000   0.0000 0000000   0.0000  93.0000 14.89338871    15
SEMAPHORE_L_00003001-64
1 64063U 25341RI  26070.40781250  .00000000  00000+0  00000-0 0  9995
2 64063   0.0000   0.0000 0000000   0.0000  94.5000 14.89338871    12
SEMAPHORE_L_00003001-65
1 64064U 24670OK  26070.40781250  .00000000  00000+0  00000-0 0  9990
2 64064   0.0000   0.0000 0000000   0.0000  96.0000 14.89338871    10
SEMAPHORE_L_00003001-66
1 64065U 22583ER  26070.40781250  .00000000  00000+0  00000-0 0  9992
2 64065   0.0000   0.0000 0000000   0.0000  97.5000 14.89338871    17
SEMAPHORE_L_00003001-67
1 64066U 25007SZ  26070.40781250  .00000000  00000+0  00000-0 0  9997
2 64066   0.0000   0.0000 0000000   0.0000  99.0000 14.89338871    15
SEMAPHORE_L_00003001-68
1 64067U 23103WC  26070.40781250  .00000000  00000+0  00000-0 0  9993
2 64067   0.0000   0.0000 0000000   0.0000 100.5000 14.89338871    14
SEMAPHORE_L_00003001-69
1 64068U 26649OF  26070.40781250  .00000000  00000+0  00000-0 0  9992
2 64068   0.0000   0.0000 0000000   0.0000 102.0000 14.89338871    12
SEMAPHORE_L_00003001-70
1 64069U 22809IA  26070.40781250  .00000000  00000+0  00000-0 0  9997
2 64069   0.0000   0.0000 0000000   0.0000 103.5000 14.89338871    19
SEMAPHORE_L_00003001-71
1 64070U 22910KH  26070.40781250  .00000000  00000+0  00000-0 0  9992
2 64070   0.0000   0.0000 0000000   0.0000 105.0000 14.89338871    18
SEMAPHORE_L_00003001-72
1 64071U 22190UJ  26070.40781250  .00000000  00000+0  00000-0 0  9993
2 64071   0.0000   0.0000 0000000   0.0000 106.5000 14.89338871    15
SEMAPHORE_L_00003001-73
1 64072U 26434XO  26070.40781250  .00000000  00000+0  00000-0 0  9999
2 64072   0.0000   0.0000 0000000   0.0000 108.0000 14.89338871    13
SEMAPHORE_L_00003001-74
1 64073U 23592FV  26070.40781250  .00000000  00000+0  00000-0 0  9992
2 64073   0.0000   0.0000 0000000   0.0000 109.5000 14.89338871    10
SEMAPHORE_L_00003001-75
1 64074U 26729NW  26070.40781250  .00000000  00000+0  00000-0 0  9998
2 64074   0.0000   0.0000 0000000   0.0000 111.0000 14.89338871    19
SEMAPHORE_L_00003001-76
1 64075U 24774OZ  26070.40781250  .00000000  00000+0  00000-0 0  9997
2 64075   0.0000   0.0000 0000000   0.0000 112.5000 14.89338871    16
SEMAPHORE_L_00003001-77
1 64076U 24389WF  26070.40781250  .00000000  00000+0  00000-0 0  9990
2 64076   0.0000   0.0000 0000000   0.0000 114.0000 14.89338871    14
SEMAPHORE_L_00003001-78
1 64077U 23323PQ  26070.40781250  .00000000  00000+0  00000-0 0  9998
2 64077   0.0000   0.0000 0000000   0.0000 115.5000 14.89338871    11
SEMAPHORE_L_00003001-79
1 64078U 26717ST  26070.40781250  .00000000  00000+0  00000-0 0  9999
2 64078   0.0000   0.0000 0000000   0.0000 117.0000 14.89338871    19
SEMAPHORE_L_00003001-80
1 64079U 23450HS  26070.40781250  .00000000  00000+0  00000-0 0  9991
2 64079   0.0000   0.0000 0000000   0.0000 118.5000 14.89338871    16
SEMAPHORE_L_00003001-81
1 64080U 23627EL  26070.40781250  .00000000  00000+0  00000-0 0  9999
2 64080   0.0000   0.0000 0000000   0.0000 120.0000 14.89338871    16
SEMAPHORE_L_00003001-82
1 64081U 24709SE  26070.40781250  .00000000  00000+0  00000-0 0  9992
2 64081   0.0000   0.0000 0000000   0.0000 121.5000 14.89338871    13
SEMAPHORE_L_00003001-83
1 64082U 22344GZ  26070.40781250  .00000000  00000+0  00000-0 0  9996
2 64082   0.0000   0.0000 0000000   0.0000 123.0000 14.89338871    11
SEMAPHORE_L_00003001-84
1 64083U 25309KE  26070.40781250  .00000000  00000+0  00000-0 0  9991
2 64083   0.0000   0.0000 0000000   0.0000 124.5000 14.89338871    18
SEMAPHORE_L_00003001-85
1 64084U 22491KP  26070.40781250  .00000000  00000+0  00000-0 0  9991
2 64084   0.0000   0.0000 0000000   0.0000 126.0000 14.89338871    16
SEMAPHORE_L_00003001-86
1 64085U 24795WA  26070.40781250  .00000000  00000+0  00000-0 0  9991
2 64085   0.0000   0.0000 0000000   0.0000 127.5000 14.89338871    13
SEMAPHORE_L_00003001-87
1 64086U 22565AU  26070.40781250  .00000000  00000+0  00000-0 0  9995
2 64086   0.0000   0.0000 0000000   0.0000 129.0000 14.89338871    11
SEMAPHORE_L_00003001-88
1 64087U 23461LZ  26070.40781250  .00000000  00000+0  00000-0 0  9992
2 64087   0.0000   0.0000 0000000   0.0000 130.5000 14.89338871    19
SEMAPHORE_L_00003001-89
1 64088U 26327EL  26070.40781250  .00000000  00000+0  00000-0 0  9997
2 64088   0.0000   0.0000 0000000   0.0000 132.0000 14.89338871    17
SEMAPHORE_L_00003001-90
1 64089U 25329VK  26070.40781250  .00000000  00000+0  00000-0 0  9999
2 64089   0.0000   0.0000 0000000   0.0000 133.5000 14.89338871    14
SEMAPHORE_L_00003001-91
1 64090U 24739ZC  26070.40781250  .00000000  00000+0  00000-0 0  9995
2 64090   0.0000   0.0000 0000000   0.0000 135.0000 14.89338871    13
SEMAPHORE_L_00003001-92
1 64091U 22946OV  26070.40781250  .00000000  00000+0  00000-0 0  9994
2 64091   0.0000   0.0000 0000000   0.0000 136.5000 14.89338871    10
SEMAPHORE_L_00003001-93
1 64092U 23110QX  26070.40781250  .00000000  00000+0  00000-0 0  9999
2 64092   0.0000   0.0000 0000000   0.0000 138.0000 14.89338871    18
SEMAPHORE_L_00003001-94
1 64093U 23605EI  26070.40781250  .00000000  00000+0  00000-0 0  9999
2 64093   0.0000   0.0000 0000000   0.0000 139.5000 14.89338871    15
SEMAPHORE_L_00003001-95
1 64094U 26598PO  26070.40781250  .00000000  00000+0  00000-0 0  9994
2 64094   0.0000   0.0000 0000000   0.0000 141.0000 14.89338871    14
SEMAPHORE_L_00003001-96
1 64095U 23026BC  26070.40781250  .00000000  00000+0  00000-0 0  9998
2 64095   0.0000   0.0000 0000000   0.0000 142.5000 14.89338871    11
SEMAPHORE_L_00003001-97
1 64096U 22305GN  26070.40781250  .00000000  00000+0  00000-0 0  9998
2 64096   0.0000   0.0000 0000000   0.0000 144.0000 14.89338871    19
SEMAPHORE_L_00003001-98
1 64097U 26331KD  26070.40781250  .00000000  00000+0  00000-0 0  9992
2 64097   0.0000   0.0000 0000000   0.0000 145.5000 14.89338871    16
SEMAPHORE_L_00003001-99
1 64098U 26958YQ  26070.40781250  .00000000  00000+0  00000-0 0  9998
2 64098   0.0000   0.0000 0000000   0.0000 147.0000 14.89338871    14
SEMAPHORE_L_00003001-100
1 64099U 26434OK  26070.40781250  .00000000  00000+0  00000-0 0  9998
2 64099   0.0000   0.0000 0000000   0.0000 148.5000 14.89338871    11
SEMAPHORE_L_00003001-101
1 64100U 24510TO  26070.40781250  .00000000  00000+0  00000-0 0  9994
2 64100   0.0000   0.0000 0000000   0.0000 150.0000 14.89338871    12
SEMAPHORE_L_00003001-102
1 64101U 22485YF  26070.40781250  .00000000  00000+0  00000-0 0  9994
2 64101   0.0000   0.0000 0000000   0.0000 151.5000 14.89338871    19
SEMAPHORE_L_00003001-103
1 64102U 26221EY  26070.40781250  .00000000  00000+0  00000-0 0  9997
2 64102   0.0000   0.0000 0000000   0.0000 153.0000 14.89338871    17
SEMAPHORE_L_00003001-104
1 64103U 24318VT  26070.40781250  .00000000  00000+0  00000-0 0  9993
2 64103   0.0000   0.0000 0000000   0.0000 154.5000 14.89338871    14
SEMAPHORE_L_00003001-105
1 64104U 22121YQ  26070.40781250  .00000000  00000+0  00000-0 0  9994
2 64104   0.0000   0.0000 0000000   0.0000 156.0000 14.89338871    12
SEMAPHORE_L_00003001-106
1 64105U 24012NM  26070.40781250  .00000000  00000+0  00000-0 0  9996
2 64105   0.0000   0.0000 0000000   0.0000 157.5000 14.89338871    19
SEMAPHORE_L_00003001-107
1 64106U 26622TJ  26070.40781250  .00000000  00000+0  00000-0 0  9996
2 64106   0.0000   0.0000 0000000   0.0000 159.0000 14.89338871    17
SEMAPHORE_L_00003001-108
1 64107U 26315KM  26070.40781250  .00000000  00000+0  00000-0 0  9996
2 64107   0.0000   0.0000 0000000   0.0000 160.5000 14.89338871    15
SEMAPHORE_L_00003001-109
1 64108U 24157IT  26070.40781250  .00000000  00000+0  00000-0 0  9999
2 64108   0.0000   0.0000 0000000   0.0000 162.0000 14.89338871    13
SEMAPHORE_L_00003001-110
1 64109U 25300JY  26070.40781250  .00000000  00000+0  00000-0 0  9991
2 64109   0.0000   0.0000 0000000   0.0000 163.5000 14.89338871    10
SEMAPHORE_L_00003001-111
1 64110U 24424PI  26070.40781250  .00000000  00000+0  00000-0 0  9999
2 64110   0.0000   0.0000 0000000   0.0000 165.0000 14.89338871    19
SEMAPHORE_L_00003001-112
1 64111U 23374HW  26070.40781250  .00000000  00000+0  00000-0 0  9993
2 64111   0.0000   0.0000 0000000   0.0000 166.5000 14.89338871    16
SEMAPHORE_L_00003001-113
1 64112U 26564EB  26070.40781250  .00000000  00000+0  00000-0 0  9998
2 64112   0.0000   0.0000 0000000   0.0000 168.0000 14.89338871    14
SEMAPHORE_L_00003001-114
1 64113U 22592RE  26070.40781250  .00000000  00000+0  00000-0 0  9996
2 64113   0.0000   0.0000 0000000   0.0000 169.5000 14.89338871    11
SEMAPHORE_L_00003001-115
1 64114U 23307AF  26070.40781250  .00000000  00000+0  00000-0 0  9992
2 64114   0.0000   0.0000 0000000   0.0000 171.0000 14.89338871    10
SEMAPHORE_L_00003001-116
1 64115U 22310MN  26070.40781250  .00000000  00000+0  00000-0 0  9996
2 64115   0.0000   0.0000 0000000   0.0000 172.5000 14.89338871    17
SEMAPHORE_L_00003001-117
1 64116U 26009DM  26070.40781250  .00000000  00000+0  00000-0 0  9996
2 64116   0.0000   0.0000 0000000   0.0000 174.0000 14.89338871    15
SEMAPHORE_L_00003001-118
1 64117U 24218UP  26070.40781250  .00000000  00000+0  00000-0 0  9997
2 64117   0.0000   0.0000 0000000   0.0000 175.5000 14.89338871    12
SEMAPHORE_L_00003001-119
1 64118U 26440LU  26070.40781250  .00000000  00000+0  00000-0 0  9997
2 64118   0.0000   0.0000 0000000   0.0000 177.0000 14.89338871    10
SEMAPHORE_L_00003001-120
1 64119U 24614YE  26070.40781250  .00000000  00000+0  00000-0 0  9999
2 64119   0.0000   0.0000 0000000   0.0000 178.5000 14.89338871    17
